IRIDIUM 135             
1 43070U 17083A   26191.24494526  .00000034  00000+0  52470-5 0  9997
2 43070  86.3981 312.3761 0002181  93.4059 266.7386 14.34217171447459
IRIDIUM 138             
1 43071U 17083B   26191.75869441  .00000146  00000+0  45167-4 0  9994
2 43071  86.3996 311.8606 0002077  91.6236 268.5197 14.34217544447510
IRIDIUM 116             
1 43072U 17083C   26191.72697443  .00000147  00000+0  45420-4 0  9996
2 43072  86.3983 312.1606 0002404  99.2562 260.8905 14.34220153447546
IRIDIUM 130             
1 43073U 17083D   26191.27665859  .00000152  00000+0  47122-4 0  9990
2 43073  86.3991 312.6264 0002164 101.1268 259.0172 14.34216740447420
IRIDIUM 151             
1 43074U 17083E   26191.73966672  .00000175  00000+0  55311-4 0  9993
2 43074  86.3985 312.2135 0002220  95.2834 264.8615 14.34217189447516
IRIDIUM 134             
1 43075U 17083F   26191.35911139  .00000169  00000+0  53297-4 0  9994
2 43075  86.3983 312.3811 0002075  95.5782 264.5650 14.34217301447422
IRIDIUM 137             
1 43076U 17083G   26191.72064065  .00000122  00000+0  36463-4 0  9998
2 43076  86.3987 312.3232 0002652  95.5249 264.6250 14.34217434447540
IRIDIUM 141             
1 43077U 17083H   26191.29568279  .00000035  00000+0  53926-5 0  9994
2 43077  86.3981 312.3299 0002192  92.2897 267.8550 14.34218284447485
IRIDIUM 153             
1 43078U 17083J   26191.24786330  .00000119  00000+0  35356-4 0  9999
2 43078  86.3961 280.8301 0002115  94.2606 265.8831 14.34217659448589
IRIDIUM 131             
1 43079U 17083K   26191.28300100 -.00000087  00000+0 -38133-4 0  9993
2 43079  86.3985 312.5225 0002079  92.5828 267.5606 14.34216775447418
IRIDIUM 144             
1 43249U 18030A   26191.25420639  .00000016  00000+0 -14708-5 0  9996
2 43249  86.3959 280.7559 0002382  96.9893 263.1574 14.34217693433445
IRIDIUM 149             
1 43250U 18030B   26191.46985475  .00000150  00000+0  46671-4 0  9996
2 43250  86.3960 280.6327 0002249  93.8646 266.2807 14.34217483433490
IRIDIUM 157             
1 43251U 18030C   26191.20981032  .00000050  00000+0  10954-4 0  9998
2 43251  86.3961 280.7949 0002252  93.9359 266.2095 14.34216466433432
IRIDIUM 140             
1 43252U 18030D   26191.64744808  .00000091  00000+0  25603-4 0  9997
2 43252  86.3960 280.6247 0002212  95.5490 264.5958 14.34216246433550
IRIDIUM 145             
1 43253U 18030E   26191.63475957  .00000082  00000+0  22391-4 0  9994
2 43253  86.3956 280.6022 0002437 102.2638 257.8831 14.34216304433488
IRIDIUM 146             
1 43254U 18030F   26191.19712178  .00000182  00000+0  58027-4 0  9991
2 43254  86.3960 280.7972 0002404  98.0496 262.0973 14.34217536433435
IRIDIUM 148             
1 43255U 18030G   26191.65379245  .00000089  00000+0  24609-4 0  9992
2 43255  86.3962 280.6498 0002340  94.1649 265.9814 14.34216650433539
IRIDIUM 142             
1 43256U 18030H   26191.76161443  .00000149  00000+0  46169-4 0  9996
2 43256  86.3959 280.4927 0002405  98.1214 262.0254 14.34217678433510
IRIDIUM 150             
1 43257U 18030J   26191.17174645 -.00000245  00000+0 -94436-4 0  9999
2 43257  86.3963 280.8566 0002215  95.9860 264.1588 14.34219143433455
IRIDIUM 143             
1 43258U 18030K   26191.64110389  .00000199  00000+0  63816-4 0  9991
2 43258  86.3964 280.7536 0002324  97.9591 262.1869 14.34217733433450
IRIDIUM 161             
1 43478U 18047C   26191.81079149  .00000167  00000+0  43582-4 0  9993
2 43478  86.4467  78.5924 0002318  78.7347 281.4114 14.43284782428545
IRIDIUM 152             
1 43479U 18047D   26191.75336535  .00000138  00000+0  42226-4 0  9994
2 43479  86.3942  78.4778 0002153  82.5761 277.5680 14.34219031425860
IRIDIUM 147             
1 43480U 18047E   26191.20155174  .00000216  00000+0  70123-4 0  9998
2 43480  86.3943  78.7142 0002275  88.4445 271.7011 14.34216920425789
IRIDIUM 110             
1 43481U 18047F   26191.62650830  .00000156  00000+0  48638-4 0  9993
2 43481  86.3947  78.6291 0002207  76.8206 283.3235 14.34217473425836
IRIDIUM 162             
1 43482U 18047G   26191.11118814  .00000189  00000+0  50126-4 0  9990
2 43482  86.4467  78.7759 0002187  84.2783 275.8667 14.43283456428433
IRIDIUM 160             
1 43569U 18061A   26191.01419513  .00000111  00000+0  32630-4 0  9996
2 43569  86.3937  47.2497 0002252  86.2180 273.9273 14.34217652416643
IRIDIUM 166             
1 43570U 18061B   26191.52794397  .00000025  00000+0  18862-5 0  9996
2 43570  86.3941  46.9848 0002258  89.6994 270.4461 14.34217857416741
IRIDIUM 158             
1 43571U 18061C   26191.00785226 -.00000083  00000+0 -36732-4 0  9992
2 43571  86.3938  47.2127 0002004  86.2707 273.8718 14.34216771416630
IRIDIUM 165             
1 43572U 18061D   26190.54484201  .00000093  00000+0  26099-4 0  9994
2 43572  86.3944  47.4530 0002256  90.6727 269.4727 14.34216760416592
IRIDIUM 155             
1 43573U 18061E   26191.55331468 -.00000038  00000+0 -20631-4 0  9990
2 43573  86.3933  46.8984 0001996  87.9352 272.2072 14.34216517416708
